ACS3                    
1 59588U 24077B   24223.74889686  .00000073  00000+0  12019-3 0  9999
2 59588  97.4026 279.2487 0018989 307.5985  52.3442 13.67696206 14861
